{
  "type": "FeatureCollection",
  "features": [
    {
      "type": "Feature",
      "properties": {
        "norad_id": 66899,
        "name": "STARLINK-36064",
        "group": "last-30-days",
        "lat": -17.94200041111506,
        "lon": 26.354348473287924,
        "alt_km": 347.3495553483026,
        "timestamp": "2025-12-19T08:58:48.084383+00:00",
        "meta_object_name": "STARLINK-36064",
        "meta_object_id": "2025-283X",
        "meta_epoch": "2025-12-18T22:00:00.999936",
        "meta_mean_motion": 15.76708527,
        "meta_eccentricity": 9.273e-05,
        "meta_inclination": 53.1555,
        "meta_ra_of_asc_node": 42.6833,
        "meta_arg_of_pericenter": 73.6701,
        "meta_mean_anomaly": 186.8436,
        "meta_ephemeris_type": 0,
        "meta_classification_type": "U",
        "meta_norad_cat_id": 66899,
        "meta_element_set_no": 999,
        "meta_rev_at_epoch": 336,
        "meta_bstar": -0.011152573,
        "meta_mean_motion_dot": -0.01623044,
        "meta_mean_motion_ddot": 0,
        "tle_line1": "1 66899U 25283X   25352.91667824 -.01623044  00000+0 -11153-1 0  9991",
        "tle_line2": "2 66899  53.1555  42.6833 0000927  73.6701 186.8436 15.76708527  3368"
      },
      "geometry": {
        "type": "Point",
        "coordinates": [
          26.354348473287924,
          -17.94200041111506
        ]
      }
    },
    {
      "type": "Feature",
      "properties": {
        "norad_id": 66900,
        "name": "STARLINK-36074",
        "group": "last-30-days",
        "lat": -16.359959083806775,
        "lon": 27.685219312923685,
        "alt_km": 347.5717627283675,
        "timestamp": "2025-12-19T08:58:48.084393+00:00",
        "meta_object_name": "STARLINK-36074",
        "meta_object_id": "2025-283Y",
        "meta_epoch": "2025-12-18T22:00:00.999936",
        "meta_mean_motion": 15.76591384,
        "meta_eccentricity": 8.902e-05,
        "meta_inclination": 53.1551,
        "meta_ra_of_asc_node": 42.6783,
        "meta_arg_of_pericenter": 83.0889,
        "meta_mean_anomaly": 179.6422,
        "meta_ephemeris_type": 0,
        "meta_classification_type": "U",
        "meta_norad_cat_id": 66900,
        "meta_element_set_no": 999,
        "meta_rev_at_epoch": 342,
        "meta_bstar": -0.011138368,
        "meta_mean_motion_dot": -0.01582618,
        "meta_mean_motion_ddot": 0,
        "tle_line1": "1 66900U 25283Y   25352.91667824 -.01582618  00000+0 -11138-1 0  9998",
        "tle_line2": "2 66900  53.1551  42.6783 0000890  83.0889 179.6422 15.76591384  3425"
      },
      "geometry": {
        "type": "Point",
        "coordinates": [
          27.685219312923685,
          -16.359959083806775
        ]
      }
    },
    {
      "type": "Feature",
      "properties": {
        "norad_id": 66901,
        "name": "STARLINK-36043",
        "group": "last-30-days",
        "lat": -14.789373406771368,
        "lon": 28.979283685440983,
        "alt_km": 347.42166005688614,
        "timestamp": "2025-12-19T08:58:48.084402+00:00",
        "meta_object_name": "STARLINK-36043",
        "meta_object_id": "2025-283Z",
        "meta_epoch": "2025-12-18T22:00:00.999936",
        "meta_mean_motion": 15.76464965,
        "meta_eccentricity": 9.326e-05,
        "meta_inclination": 53.1553,
        "meta_ra_of_asc_node": 42.674,
        "meta_arg_of_pericenter": 78.5251,
        "meta_mean_anomaly": 186.3341,
        "meta_ephemeris_type": 0,
        "meta_classification_type": "U",
        "meta_norad_cat_id": 66901,
        "meta_element_set_no": 999,
        "meta_rev_at_epoch": 342,
        "meta_bstar": -0.010430457,
        "meta_mean_motion_dot": -0.01486926,
        "meta_mean_motion_ddot": 0,
        "tle_line1": "1 66901U 25283Z   25352.91667824 -.01486926  00000+0 -10430-1 0  9998",
        "tle_line2": "2 66901  53.1553  42.6740 0000932  78.5251 186.3341 15.76464965  3429"
      },
      "geometry": {
        "type": "Point",
        "coordinates": [
          28.979283685440983,
          -14.789373406771368
        ]
      }
    },
    {
      "type": "Feature",
      "properties": {
        "norad_id": 66902,
        "name": "STARLINK-35983",
        "group": "last-30-days",
        "lat": -13.21713911292005,
        "lon": 30.2499925808084,
        "alt_km": 347.7772446575773,
        "timestamp": "2025-12-19T08:58:48.084415+00:00",
        "meta_object_name": "STARLINK-35983",
        "meta_object_id": "2025-283AA",
        "meta_epoch": "2025-12-18T22:00:00.999936",
        "meta_mean_motion": 15.76344693,
        "meta_eccentricity": 0.00011383,
        "meta_inclination": 53.1554,
        "meta_ra_of_asc_node": 42.6693,
        "meta_arg_of_pericenter": 90.6644,
        "meta_mean_anomaly": 176.4228,
        "meta_ephemeris_type": 0,
        "meta_classification_type": "U",
        "meta_norad_cat_id": 66902,
        "meta_element_set_no": 999,
        "meta_rev_at_epoch": 342,
        "meta_bstar": -0.010712121,
        "meta_mean_motion_dot": -0.01515099,
        "meta_mean_motion_ddot": 0,
        "tle_line1": "1 66902U 25283AA  25352.91667824 -.01515099  00000+0 -10712-1 0  9996",
        "tle_line2": "2 66902  53.1554  42.6693 0001138  90.6644 176.4228 15.76344693  3427"
      },
      "geometry": {
        "type": "Point",
        "coordinates": [
          30.2499925808084,
          -13.21713911292005
        ]
      }
    },
    {
      "type": "Feature",
      "properties": {
        "norad_id": 66903,
        "name": "STARLINK-36077",
        "group": "last-30-days",
        "lat": -11.675636003790762,
        "lon": 31.47566907670327,
        "alt_km": 347.84454198213916,
        "timestamp": "2025-12-19T08:58:48.084425+00:00",
        "meta_object_name": "STARLINK-36077",
        "meta_object_id": "2025-283AB",
        "meta_epoch": "2025-12-18T22:00:00.999936",
        "meta_mean_motion": 15.76285559,
        "meta_eccentricity": 0.00010482,
        "meta_inclination": 53.156,
        "meta_ra_of_asc_node": 42.6652,
        "meta_arg_of_pericenter": 91.2283,
        "meta_mean_anomaly": 177.9393,
        "meta_ephemeris_type": 0,
        "meta_classification_type": "U",
        "meta_norad_cat_id": 66903,
        "meta_element_set_no": 999,
        "meta_rev_at_epoch": 342,
        "meta_bstar": -0.010991765,
        "meta_mean_motion_dot": -0.0154602,
        "meta_mean_motion_ddot": 0,
        "tle_line1": "1 66903U 25283AB  25352.91667824 -.01546020  00000+0 -10992-1 0  9995",
        "tle_line2": "2 66903  53.1560  42.6652 0001048  91.2283 177.9393 15.76285559  3420"
      },
      "geometry": {
        "type": "Point",
        "coordinates": [
          31.47566907670327,
          -11.675636003790762
        ]
      }
    },
    {
      "type": "Feature",
      "properties": {
        "norad_id": 66904,
        "name": "STARLINK-36059",
        "group": "last-30-days",
        "lat": -10.073028015166624,
        "lon": 32.72992186434303,
        "alt_km": 347.6599044947143,
        "timestamp": "2025-12-19T08:58:48.084437+00:00",
        "meta_object_name": "STARLINK-36059",
        "meta_object_id": "2025-283AC",
        "meta_epoch": "2025-12-18T22:00:00.999936",
        "meta_mean_motion": 15.7622562,
        "meta_eccentricity": 7.306e-05,
        "meta_inclination": 53.1548,
        "meta_ra_of_asc_node": 42.6604,
        "meta_arg_of_pericenter": 80.0738,
        "meta_mean_anomaly": 191.1879,
        "meta_ephemeris_type": 0,
        "meta_classification_type": "U",
        "meta_norad_cat_id": 66904,
        "meta_element_set_no": 999,
        "meta_rev_at_epoch": 342,
        "meta_bstar": -0.010795784,
        "meta_mean_motion_dot": -0.01518116,
        "meta_mean_motion_ddot": 0,
        "tle_line1": "1 66904U 25283AC  25352.91667824 -.01518116  00000+0 -10796-1 0  9993",
        "tle_line2": "2 66904  53.1548  42.6604 0000730  80.0738 191.1879 15.76225620  3422"
      },
      "geometry": {
        "type": "Point",
        "coordinates": [
          32.72992186434303,
          -10.073028015166624
        ]
      }
    },
    {
      "type": "Feature",
      "properties": {
        "norad_id": 66905,
        "name": "STARLINK-36075",
        "group": "last-30-days",
        "lat": -8.540271981565075,
        "lon": 33.915586182197465,
        "alt_km": 347.73137369390224,
        "timestamp": "2025-12-19T08:58:48.084447+00:00",
        "meta_object_name": "STARLINK-36075",
        "meta_object_id": "2025-283AD",
        "meta_epoch": "2025-12-18T22:00:00.999936",
        "meta_mean_motion": 15.76147857,
        "meta_eccentricity": 7.623e-05,
        "meta_inclination": 53.1558,
        "meta_ra_of_asc_node": 42.6562,
        "meta_arg_of_pericenter": 93.2538,
        "meta_mean_anomaly": 180.0465,
        "meta_ephemeris_type": 0,
        "meta_classification_type": "U",
        "meta_norad_cat_id": 66905,
        "meta_element_set_no": 999,
        "meta_rev_at_epoch": 342,
        "meta_bstar": -0.010652509,
        "meta_mean_motion_dot": -0.0149589,
        "meta_mean_motion_ddot": 0,
        "tle_line1": "1 66905U 25283AD  25352.91667824 -.01495890  00000+0 -10653-1 0  9999",
        "tle_line2": "2 66905  53.1558  42.6562 0000762  93.2538 180.0465 15.76147857  3429"
      },
      "geometry": {
        "type": "Point",
        "coordinates": [
          33.915586182197465,
          -8.540271981565075
        ]
      }
    }
  ]
}